[Satellite]
VERSION=1.1
NAME=STARLINK-1377
NICKNAME=STARLINK-1377
TLE1=1 45547U 20025S   20141.75001157  .02511537  00000-0  35282-1 0  9993
TLE2=2 45547  52.9997 262.2895 0002412 107.9278 358.3317 15.52829356  5107
STATUS=0
